NORAD_CAT_ID,OBJECT_NAME,OBJECT_TYPE,EPOCH,MEAN_MOTION,ECCENTRICITY,INCLINATION,RA_OF_ASC_NODE,ARG_OF_PERICENTER,MEAN_ANOMALY,BSTAR,MEAN_MOTION_DOT,MEAN_MOTION_DDOT,TLE_LINE0,TLE_LINE1,TLE_LINE2,SEMIMAJOR_AXIS,PERIOD,APOGEE,PERIGEE,DECAYED
54101.0,STARLINK-5204,PAYLOAD,2023-01-02 22:00:00,15.64600136,0.0001264999999999,53.2165,140.2744,44.0031,354.8249,-0.010301,-0.00922625,0.0,0 STARLINK-5204,1 54101U 22136BC  23002.91667824 -.00922625  00000-0 -10301-1 0  9999,2 54101  53.2165 140.2744 0001265  44.0031 354.8249 15.64600136  1304,6752.526,92.036,375.245,373.537,0.0
54101.0,STARLINK-5204,PAYLOAD,2023-01-03 00:00:00,15.64427418,0.0001388,53.2171,139.866,51.5007,96.9529,-0.010215,-0.00909889,0.0,0 STARLINK-5204,1 54101U 22136BC  23003.00001157 -.00909889  00000-0 -10215-1 0  9992,2 54101  53.2171 139.8660 0001388  51.5007  96.9529 15.64427418 12200,6753.023,92.046,375.825,373.951,0.0
54101.0,STARLINK-5204,PAYLOAD,2023-01-03 14:00:01,15.63293811,0.000139,53.2169,137.0197,58.7702,135.6488,-0.010766,-0.009161,0.0,0 STARLINK-5204,1 54101U 22136BC  23003.58334491 -.00916100  00000-0 -10766-1 0  9990,2 54101  53.2169 137.0197 0001390  58.7702 135.6488 15.63293811  1307,6756.2869999999975,92.113,379.091,377.213,0.0
54101.0,STARLINK-5204,PAYLOAD,2023-01-03 22:00:00,15.62647989,0.0001478,53.2164,135.3956,39.3393,231.6985,-0.011154,-0.00924433,0.0,0 STARLINK-5204,1 54101U 22136BC  23003.91667824 -.00924433  00000-0 -11154-1 0  9996,2 54101  53.2164 135.3956 0001478  39.3393 231.6985 15.62647989 12347,6758.149,92.151,381.012,379.015,0.0
54101.0,STARLINK-5204,PAYLOAD,2023-01-04 14:00:01,15.61335831,0.0001372,53.2168,132.1505,50.4827,11.5202,-0.011541,-0.00909983,0.0,0 STARLINK-5204,1 54101U 22136BC  23004.58335648 -.00909983  00000-0 -11541-1 0  9999,2 54101  53.2168 132.1505 0001372  50.4827  11.5202 15.61335831  1305,6761.934,92.229,384.727,382.872,0.0
54101.0,STARLINK-5204,PAYLOAD,2023-01-04 22:00:00,15.60686305,0.000159,53.2166,130.5311,41.0379,95.173,-0.011856,-0.00911455,0.0,0 STARLINK-5204,1 54101U 22136BC  23004.91667824 -.00911455  00000-0 -11856-1 0  9996,2 54101  53.2166 130.5311 0001590  41.0379  95.1730 15.60686305  1308,6763.81,92.267,386.751,384.6,0.0
54101.0,STARLINK-5204,PAYLOAD,2023-01-05 00:00:00,15.60522898,0.0001453999999999,53.2172,130.1252,47.0271,197.6314,-0.01193,-0.00911332,0.0,0 STARLINK-5204,1 54101U 22136BC  23005.00001157 -.00911332  00000-0 -11930-1 0  9995,2 54101  53.2172 130.1252 0001454  47.0271 197.6314 15.60522898 12518,6764.283,92.277,387.131,385.164,0.0
54101.0,STARLINK-5204,PAYLOAD,2023-01-05 14:00:01,15.59380745,0.0001358,53.217,127.2959,50.1174,232.2965,-0.012389,-0.00906156,0.0,0 STARLINK-5204,1 54101U 22136BC  23005.58334491 -.00906156  00000-0 -12389-1 0  9995,2 54101  53.2170 127.2959 0001358  50.1174 232.2965 15.59380745  1301,6767.585,92.344,390.369,388.531,0.0
54101.0,STARLINK-5204,PAYLOAD,2023-01-05 20:00:01,15.58892881,0.0001433,53.2172,126.0841,48.3573,198.075,-0.012612,-0.00905497,0.0,0 STARLINK-5204,1 54101U 22136BC  23005.83334491 -.00905497  00000-0 -12612-1 0  9999,2 54101  53.2172 126.0841 0001433  48.3573 198.0750 15.58892881  1305,6768.996999999999,92.373,391.832,389.892,0.0
54101.0,STARLINK-5204,PAYLOAD,2023-01-06 08:00:01,15.5791671,0.0001708,53.2175,123.6621,40.7475,132.4031,-0.013091,-0.00905696,0.0,0 STARLINK-5204,1 54101U 22136BC  23006.33334491 -.00905696  00000-0 -13091-1 0  9998,2 54101  53.2175 123.6621 0001708  40.7475 132.4031 15.57916710 12728,6771.824000000001,92.431,394.846,392.533,0.0
54101.0,STARLINK-5204,PAYLOAD,2023-01-06 22:00:00,15.56806901,0.0001814,53.2164,120.8448,32.0511,173.364,-0.014344,-0.00947427,0.0,0 STARLINK-5204,1 54101U 22136BC  23006.91667824 -.00947427  00000-0 -14344-1 0  9991,2 54101  53.2164 120.8448 0001814  32.0511 173.3640 15.56806901  1306,6775.042,92.497,398.136,395.67800000000005,0.0
54101.0,STARLINK-5204,PAYLOAD,2023-01-07 06:00:00,15.56126137,0.0001672,53.2173,119.2333,36.5427,237.6859,-0.014009,-0.00906034,0.0,0 STARLINK-5204,1 54101U 22136BC  23007.25001157 -.00906034  00000-0 -14009-1 0  9997,2 54101  53.2173 119.2333 0001672  36.5427 237.6859 15.56126137  1300,6777.018,92.537,400.016,397.75,0.0
54101.0,STARLINK-5204,PAYLOAD,2023-01-08 00:00:00,15.54662603,0.0001768,53.2172,115.6203,36.5809,119.5821,-0.014817,-0.00907475,0.0,0 STARLINK-5204,1 54101U 22136BC  23008.00001157 -.00907475  00000-0 -14817-1 0  9998,2 54101  53.2172 115.6203 0001768  36.5809 119.5821 15.54662603  1303,6781.271,92.625,404.335,401.937,0.0
54101.0,STARLINK-5204,PAYLOAD,2023-01-08 06:00:00,15.54170303,0.000364,53.2169,114.4173,282.4329,193.4952,-0.014896,-0.00897474,0.0,0 STARLINK-5204,1 54101U 22136BC  23008.25001157 -.00897474  00000-0 -14896-1 0  9999,2 54101  53.2169 114.4173 0003640 282.4329 193.4952 15.54170303 13021,6782.703,92.654,407.036,402.099,0.0
54101.0,STARLINK-5204,PAYLOAD,2023-01-08 14:00:01,15.53523978,0.0001704,53.2171,112.8162,41.9556,139.6402,-0.01546,-0.00907962,0.0,0 STARLINK-5204,1 54101U 22136BC  23008.58334491 -.00907962  00000-0 -15460-1 0  9997,2 54101  53.2171 112.8162 0001704  41.9556 139.6402 15.53523978  1302,6784.584,92.692,407.605,405.293,0.0
54101.0,STARLINK-5204,PAYLOAD,2023-01-08 22:00:00,15.52882332,0.0001835,53.2167,111.2148,32.0401,214.4385,-0.016084,-0.00921404,0.0,0 STARLINK-5204,1 54101U 22136BC  23008.91667824 -.00921404  00000-0 -16084-1 0  9993,2 54101  53.2167 111.2148 0001835  32.0401 214.4385 15.52882332 13125,6786.451999999998,92.731,409.5630000000001,407.072,0.0
54101.0,STARLINK-5204,PAYLOAD,2023-01-09 14:00:01,15.51577415,0.0001325,53.2173,108.0179,42.5014,331.4046,-0.016766,-0.00929256,0.0,0 STARLINK-5204,1 54101U 22136BC  23009.58334491 -.00929256  00000-0 -16766-1 0  9998,2 54101  53.2173 108.0179 0001325  42.5014 331.4046 15.51577415  1303,6790.257,92.809,413.022,411.222,0.0
54101.0,STARLINK-5204,PAYLOAD,2023-01-10 00:00:00,15.50689655,0.0001475,53.2175,106.0203,44.7798,137.1961,-0.013705,-0.00739812,0.0,0 STARLINK-5204,1 54101U 22136BC  23010.00001157 -.00739812  00000-0 -13705-1 0  9994,2 54101  53.2175 106.0203 0001475  44.7798 137.1961 15.50689655  1306,6792.848000000001,92.862,415.715,413.711,0.0
54101.0,STARLINK-5204,PAYLOAD,2023-01-10 10:00:00,15.49976724,0.000148,53.2179,104.0281,48.2006,300.6251,-0.002481,-0.0013924,0.0,0 STARLINK-5204,1 54101U 22136BC  23010.41667824 -.00139240  00000-0 -24810-2 0  9997,2 54101  53.2179 104.0281 0001480  48.2006 300.6251 15.49976724 13363,6794.931,92.905,417.802,415.79,0.0
54101.0,STARLINK-5204,PAYLOAD,2023-01-10 14:00:01,15.49885693,0.0001621,53.2174,103.2328,45.2798,154.0493,-3.4459e-06,-6.47e-06,0.0,0 STARLINK-5204,1 54101U 22136BC  23010.58334491 -.00000647  00000-0 -34459-5 0  9997,2 54101  53.2174 103.2328 0001621  45.2798 154.0493 15.49885693  1307,6795.196999999999,92.91,418.164,415.961,0.0
54101.0,STARLINK-5204,PAYLOAD,2023-01-10 22:00:00,15.49861863,0.0001919,53.2131,101.6456,48.8758,211.1847,-0.00028983,-0.00016853,0.0,0 STARLINK-5204,1 54101U 22136BC  23010.91667824 -.00016853  00000-0 -28983-3 0  9992,2 54101  53.2131 101.6456 0001919  48.8758 211.1847 15.49861863 13437,6795.267,92.912,418.436,415.828,0.0
54101.0,STARLINK-5204,PAYLOAD,2023-01-11 08:00:01,15.49955187,0.0001423,53.2172,99.647,54.7298,11.6436,-0.0034518,-0.00192112,0.0,0 STARLINK-5204,1 54101U 22136BC  23011.33334491 -.00192112  00000-0 -34518-2 0  9993,2 54101  53.2172  99.6470 0001423  54.7298  11.6436 15.49955187 13507,6794.9940000000015,92.906,417.826,415.892,0.0
54101.0,STARLINK-5204,PAYLOAD,2023-01-11 14:00:01,15.499549900000002,0.0001416999999999,53.2171,98.4537,51.1751,330.8905,-0.010549,-0.00559642,0.0,0 STARLINK-5204,1 54101U 22136BC  23011.58334491 -.00559642  00000-0 -10549-1 0  9992,2 54101  53.2171  98.4537 0001417  51.1751 330.8905 15.49954990  1308,6794.995,92.906,417.822,415.897,0.0
54101.0,STARLINK-5204,PAYLOAD,2023-01-11 16:00:00,15.49900577,0.0001513,53.2172,98.0556,53.0529,74.2376,-0.012695,-0.00663322,0.0,0 STARLINK-5204,1 54101U 22136BC  23011.66667824 -.00663322  00000-0 -12695-1 0  9995,2 54101  53.2172  98.0556 0001513  53.0529  74.2376 15.49900577 13550,6795.154,92.909,418.047,415.991,0.0
54101.0,STARLINK-5204,PAYLOAD,2023-01-11 22:00:00,15.49595677,0.0001389,53.2173,96.8596,50.2184,32.6099,-0.017787,-0.00919235,0.0,0 STARLINK-5204,1 54101U 22136BC  23011.91667824 -.00919235  00000-0 -17787-1 0  9997,2 54101  53.2173  96.8596 0001389  50.2184  32.6099 15.49595677 13593,6796.045,92.927,418.854,416.966,0.0
54101.0,STARLINK-5204,PAYLOAD,2023-01-12 08:00:01,15.488065300000002,0.000131,53.2145,94.8757,87.993,159.9507,-0.019224,-0.00962228,0.0,0 STARLINK-5204,1 54101U 22136BC  23012.33334491 -.00962228  00000-0 -19224-1 0  9993,2 54101  53.2145  94.8757 0001310  87.9930 159.9507 15.48806530 13655,6798.353,92.975,421.109,419.328,0.0
54101.0,STARLINK-5204,PAYLOAD,2023-01-12 22:00:00,15.47653658,0.0001208,53.2137,92.0952,85.9287,175.0881,-0.019634,-0.00945181,0.0,0 STARLINK-5204,1 54101U 22136BC  23012.91667824 -.00945181  00000-0 -19634-1 0  9990,2 54101  53.2137  92.0952 0001208  85.9287 175.0881 15.47653658 13746,6801.729,93.044,424.416,422.772,0.0
54101.0,STARLINK-5204,PAYLOAD,2023-01-13 14:00:01,15.46310468,0.0001142,53.2138,88.9236,70.1142,305.7649,-0.018738,-0.0085577999999999,0.0,0 STARLINK-5204,1 54101U 22136BC  23013.58334491 -.00855780  00000-0 -18738-1 0  9994,2 54101  53.2138  88.9236 0001142  70.1142 305.7649 15.46310468  1300,6805.667,93.125,428.309,426.755,0.0
54101.0,STARLINK-5204,PAYLOAD,2023-01-13 16:00:00,15.46157187,0.0001269,53.2139,88.527,66.7901,53.2215,-0.019042,-0.00875818,0.0,0 STARLINK-5204,1 54101U 22136BC  23013.66667824 -.00875818  00000-0 -19042-1 0  9995,2 54101  53.2139  88.5270 0001269  66.7901  53.2215 15.46157187 13864,6806.116999999999,93.134,428.846,427.11800000000005,0.0
